{"type": "FeatureCollection", "features": [{"type": "Feature", "properties": {"country": "NL", "name": "Niederlande"}, "geometry": {"type": "MultiPolygon", "coordinates": [[[[5.993945, 50.750439], [5.892461, 50.752557], [5.797363, 50.754541], [5.74707, 50.75957], [5.693652, 50.774658], [5.693555, 50.774756], [5.669141, 50.805957], [5.639453, 50.843604], [5.647559, 50.86665], [5.736621, 50.932129], [5.75, 50.950244], [5.74082, 50.959912], [5.749805, 50.98877], [5.818262, 51.086426], [5.827148, 51.125635], [5.796484, 51.153076], [5.752344, 51.169482], [5.608789, 51.198437], [5.54043, 51.239307], [5.508789, 51.275], [5.476855, 51.285059], [5.429785, 51.272998], [5.31084, 51.259717], [5.21416, 51.278955], [5.099902, 51.346484], [5.073438, 51.406836], [5.059473, 51.453125], [5.030957, 51.469092], [4.992578, 51.445361], [4.943945, 51.407764], [4.848047, 51.403271], [4.820703, 51.412061], [4.816016, 51.432812], [4.810547, 51.452734], [4.78418, 51.477393], [4.755664, 51.491113], [4.633984, 51.421729], [4.58877, 51.421924], [4.531641, 51.448584], [4.503418, 51.474707], [4.440918, 51.459814], [4.384766, 51.427588], [4.404004, 51.36709], [4.37373, 51.356006], [4.304492, 51.361523], [4.226172, 51.386475], [4.138867, 51.401514], [4.006543, 51.443213], [3.821875, 51.409375], [3.693555, 51.449902], [3.586914, 51.453906], [3.520508, 51.486182], [3.448926, 51.540771], [3.499609, 51.57666], [3.548633, 51.589111], [3.743945, 51.596045], [3.886035, 51.574219], [4.141309, 51.455762], [4.205762, 51.456689], [4.274121, 51.471631], [4.239355, 51.503906], [4.175488, 51.519287], [4.080469, 51.551123], [4.004785, 51.59585], [4.182617, 51.610303], [4.158008, 51.633447], [4.13457, 51.6729], [3.946875, 51.810547], [3.978906, 51.847803], [4.026074, 51.927734], [4.084863, 51.994092], [4.131738, 52.011914], [4.208789, 52.058984], [4.37627, 52.196826], [4.482813, 52.30918], [4.562109, 52.442578], [4.67832, 52.809766], [4.712695, 52.872119], [4.76875, 52.941309], [4.839063, 52.928271], [4.887988, 52.90835], [5.06123, 52.960645], [5.358398, 53.096484], [5.445996, 53.214062], [5.532031, 53.268701], [5.873535, 53.375195], [6.062207, 53.40708], [6.353223, 53.415283], [6.563574, 53.434277], [6.816211, 53.441162], [6.912402, 53.375391], [6.968164, 53.327295], [7.058008, 53.300586], [7.197266, 53.282275], [7.188965, 53.187207], [7.189941, 52.999512], [7.179492, 52.966211], [7.11709, 52.887012], [7.050879, 52.744775], [7.033008, 52.651367], [7.013184, 52.633545], [6.748438, 52.634082], [6.710742, 52.617871], [6.705371, 52.597656], [6.71875, 52.573584], [6.712402, 52.549658], [6.691602, 52.530176], [6.70293, 52.499219], [6.748828, 52.464014], [6.83252, 52.442285], [6.92207, 52.440283], [6.968164, 52.444092], [7.001855, 52.418994], [7.035156, 52.380225], [7.032617, 52.331494], [7.019629, 52.266016], [6.977246, 52.205518], [6.855078, 52.135791], [6.800391, 52.11123], [6.749023, 52.098682], [6.724512, 52.080225], [6.712988, 52.056885], [6.715625, 52.036182], [6.802441, 51.980176], [6.800391, 51.967383], [6.775195, 51.938281], [6.741797, 51.910889], [6.517578, 51.853955], [6.425, 51.858398], [6.372168, 51.830029], [6.355664, 51.824658], [6.29707, 51.850732], [6.166504, 51.880762], [6.117188, 51.87041], [6.089844, 51.853955], [6.007617, 51.833984], [5.94873, 51.802686], [5.948535, 51.762402], [6.052734, 51.658252], [6.089355, 51.637793], [6.091113, 51.598926], [6.141602, 51.550098], [6.193262, 51.488916], [6.198828, 51.45], [6.192871, 51.410596], [6.166211, 51.354834], [6.075879, 51.224121], [6.074805, 51.199023], [6.082422, 51.17998], [6.113379, 51.174707], [6.136914, 51.164844], [6.12998, 51.147412], [5.961035, 51.056689], [5.939258, 51.04082], [5.868359, 51.045312], [5.85752, 51.030127], [5.867188, 51.005664], [5.894727, 50.984229], [5.955078, 50.972949], [6.006836, 50.949951], [6.048438, 50.904883], [5.993945, 50.750439]]], [[[4.226172, 51.386475], [4.211426, 51.34873], [4.172559, 51.30708], [4.040039, 51.24707], [3.902051, 51.207666], [3.830762, 51.212598], [3.781934, 51.233203], [3.755664, 51.254834], [3.681836, 51.275684], [3.580273, 51.286182], [3.51709, 51.263623], [3.471973, 51.242236], [3.43252, 51.245752], [3.402832, 51.263623], [3.380078, 51.291113], [3.350098, 51.377686], [3.425781, 51.393506], [3.589453, 51.399414], [3.716504, 51.369141], [3.883398, 51.354492], [4.011035, 51.395947], [4.111523, 51.360645], [4.226172, 51.386475]]], [[[6.333398, 53.510742], [6.193262, 53.476807], [6.159277, 53.483936], [6.167676, 53.49375], [6.290918, 53.51499], [6.333398, 53.510742]]], [[[5.929297, 53.458838], [5.732031, 53.442627], [5.665332, 53.454883], [5.654297, 53.466504], [5.708105, 53.473389], [5.87627, 53.475098], [5.928223, 53.46499], [5.929297, 53.458838]]], [[[5.108594, 53.308008], [4.92373, 53.23457], [4.90791, 53.24624], [5.027051, 53.310205], [5.108594, 53.308008]]], [[[5.325781, 53.385742], [5.232617, 53.377783], [5.190234, 53.391797], [5.415137, 53.431445], [5.557422, 53.443555], [5.582617, 53.438086], [5.325781, 53.385742]]], [[[4.886133, 53.070703], [4.787109, 52.999805], [4.726758, 53.019629], [4.70918, 53.036035], [4.739844, 53.091309], [4.886426, 53.183301], [4.886133, 53.070703]]], [[[3.949121, 51.739453], [4.046777, 51.684912], [4.067578, 51.66748], [4.075098, 51.648779], [3.950977, 51.627051], [3.819043, 51.693994], [3.731836, 51.678223], [3.699023, 51.709912], [3.698535, 51.729687], [3.789062, 51.746436], [3.949121, 51.739453]]], [[[6.734766, 53.58252], [6.64209, 53.579199], [6.668555, 53.605664], [6.75459, 53.625488], [6.800879, 53.625488], [6.734766, 53.58252]]], [[[-68.205811, 12.14458], [-68.254346, 12.03208], [-68.282227, 12.082275], [-68.287256, 12.171729], [-68.307129, 12.206738], [-68.348437, 12.228076], [-68.371094, 12.25752], [-68.369238, 12.301953], [-68.219482, 12.23125], [-68.205811, 12.14458]]], [[[-62.9375, 17.495654], [-62.961719, 17.475049], [-62.983105, 17.476904], [-62.997168, 17.496826], [-62.999609, 17.530371], [-62.979346, 17.521191], [-62.971777, 17.516064], [-62.96543, 17.509277], [-62.9375, 17.495654]]], [[[-63.232666, 17.623145], [-63.241602, 17.61958], [-63.254492, 17.628662], [-63.252148, 17.645264], [-63.24165, 17.651807], [-63.233496, 17.647217], [-63.226904, 17.634131], [-63.232666, 17.623145]]]]}}, {"type": "Feature", "properties": {"country": "DE", "name": "Deutschland"}, "geometry": {"type": "MultiPolygon", "coordinates": [[[[9.524023, 47.524219], [9.35, 47.598926], [9.182813, 47.670703], [9.127539, 47.670703], [8.881152, 47.656396], [8.874023, 47.662695], [8.831152, 47.703613], [8.793066, 47.716553], [8.770117, 47.709912], [8.754785, 47.698047], [8.72832, 47.700049], [8.617871, 47.766113], [8.572656, 47.775635], [8.509863, 47.766895], [8.435742, 47.731348], [8.403418, 47.687793], [8.413281, 47.662695], [8.451758, 47.651807], [8.552344, 47.659131], [8.56709, 47.651904], [8.570508, 47.637793], [8.559473, 47.624023], [8.477637, 47.612695], [8.454004, 47.596191], [8.430078, 47.592139], [8.414746, 47.5896], [8.327832, 47.606934], [8.198242, 47.606934], [8.09375, 47.576172], [7.927051, 47.563867], [7.698047, 47.569873], [7.615625, 47.592725], [7.56543, 47.606543], [7.529395, 47.673877], [7.538574, 47.773633], [7.593262, 47.905664], [7.608496, 48.002588], [7.58418, 48.064307], [7.616602, 48.156787], [7.705664, 48.280029], [7.765137, 48.41001], [7.794824, 48.546826], [7.837988, 48.636035], [7.922754, 48.698535], [8.124023, 48.873291], [8.140332, 48.886426], [8.134863, 48.973584], [8.080664, 48.985889], [8.00127, 49.010937], [7.799219, 49.041895], [7.610938, 49.061768], [7.525488, 49.086377], [7.450586, 49.152197], [7.404199, 49.153076], [7.313379, 49.129541], [7.199902, 49.113623], [7.117383, 49.127539], [7.065723, 49.124854], [7.036719, 49.112695], [7.022168, 49.123437], [7.001465, 49.179883], [6.958301, 49.194629], [6.891211, 49.20752], [6.849512, 49.201953], [6.820703, 49.173926], [6.77627, 49.15415], [6.735449, 49.160596], [6.607617, 49.290869], [6.574707, 49.319678], [6.566309, 49.346191], [6.534277, 49.394678], [6.458105, 49.442871], [6.382227, 49.458154], [6.344336, 49.452734], [6.348438, 49.512695], [6.37832, 49.599609], [6.406738, 49.644971], [6.444629, 49.682031], [6.484766, 49.707812], [6.49375, 49.754395], [6.487305, 49.798486], [6.440918, 49.805322], [6.324609, 49.837891], [6.256055, 49.872168], [6.204883, 49.915137], [6.138184, 49.974316], [6.109766, 50.034375], [6.108301, 50.094238], [6.116504, 50.120996], [6.121289, 50.139355], [6.175098, 50.232666], [6.364453, 50.316162], [6.343652, 50.400244], [6.340918, 50.451758], [6.294922, 50.485498], [6.203027, 50.499121], [6.178711, 50.52251], [6.168457, 50.545361], [6.235938, 50.59668], [6.154492, 50.637256], [6.119434, 50.679248], [6.005957, 50.732227], [5.993945, 50.750439], [6.048438, 50.904883], [6.006836, 50.949951], [5.955078, 50.972949], [5.894727, 50.984229], [5.867188, 51.005664], [5.85752, 51.030127], [5.868359, 51.045312], [5.939258, 51.04082], [5.961035, 51.056689], [6.12998, 51.147412], [6.136914, 51.164844], [6.113379, 51.174707], [6.082422, 51.17998], [6.074805, 51.199023], [6.075879, 51.224121], [6.166211, 51.354834], [6.192871, 51.410596], [6.198828, 51.45], [6.193262, 51.488916], [6.141602, 51.550098], [6.091113, 51.598926], [6.089355, 51.637793], [6.052734, 51.658252], [5.948535, 51.762402], [5.94873, 51.802686], [6.007617, 51.833984], [6.089844, 51.853955], [6.117188, 51.87041], [6.166504, 51.880762], [6.29707, 51.850732], [6.355664, 51.824658], [6.372168, 51.830029], [6.425, 51.858398], [6.517578, 51.853955], [6.741797, 51.910889], [6.775195, 51.938281], [6.800391, 51.967383], [6.802441, 51.980176], [6.715625, 52.036182], [6.712988, 52.056885], [6.724512, 52.080225], [6.749023, 52.098682], [6.800391, 52.11123], [6.855078, 52.135791], [6.977246, 52.205518], [7.019629, 52.266016], [7.032617, 52.331494], [7.035156, 52.380225], [7.001855, 52.418994], [6.968164, 52.444092], [6.92207, 52.440283], [6.83252, 52.442285], [6.748828, 52.464014], [6.70293, 52.499219], [6.691602, 52.530176], [6.712402, 52.549658], [6.71875, 52.573584], [6.705371, 52.597656], [6.710742, 52.617871], [6.748438, 52.634082], [7.013184, 52.633545], [7.033008, 52.651367], [7.050879, 52.744775], [7.11709, 52.887012], [7.179492, 52.966211], [7.189941, 52.999512], [7.188965, 53.187207], [7.197266, 53.282275], [7.152051, 53.326953], [7.05332, 53.37583], [7.074316, 53.477637], [7.107129, 53.556982], [7.206445, 53.654541], [7.285254, 53.681348], [7.629199, 53.697266], [8.009277, 53.690723], [8.16709, 53.543408], [8.108496, 53.467676], [8.200781, 53.432422], [8.245215, 53.445312], [8.279004, 53.511182], [8.301563, 53.584131], [8.333887, 53.606201], [8.451367, 53.551709], [8.492676, 53.514355], [8.495215, 53.394238], [8.538477, 53.556885], [8.50625, 53.670752], [8.528418, 53.781104], [8.575586, 53.838477], [8.618945, 53.875], [8.897754, 53.835693], [9.205566, 53.855957], [9.321973, 53.813477], [9.585352, 53.600488], [9.673145, 53.565625], [9.783984, 53.554639], [9.63125, 53.600195], [9.312012, 53.859131], [9.216406, 53.891211], [9.069629, 53.900928], [8.978125, 53.926221], [8.92041, 53.965332], [8.903516, 54.000293], [8.906641, 54.260791], [8.851562, 54.299561], [8.780371, 54.313037], [8.736035, 54.295215], [8.644922, 54.294971], [8.625781, 54.353955], [8.648047, 54.397656], [8.831152, 54.427539], [8.951855, 54.467578], [8.957227, 54.53833], [8.880957, 54.593945], [8.789648, 54.695947], [8.682324, 54.791846], [8.670313, 54.903418], [8.670703, 54.90332], [8.857227, 54.901123], [8.90293, 54.896924], [9.18584, 54.844678], [9.25498, 54.808008], [9.341992, 54.806299], [9.49873, 54.84043], [9.61582, 54.85542], [9.66123, 54.834375], [9.725, 54.825537], [9.739746, 54.825537], [9.745898, 54.807178], [9.892285, 54.780615], [9.953809, 54.738281], [10.022168, 54.673926], [10.028809, 54.581299], [9.941309, 54.514648], [9.868652, 54.472461], [10.143457, 54.488428], [10.170801, 54.450195], [10.212402, 54.408936], [10.360449, 54.43833], [10.731543, 54.31626], [10.955957, 54.375684], [11.013379, 54.37915], [11.064355, 54.280518], [11.008594, 54.181152], [10.810742, 54.075146], [10.85459, 54.009814], [10.917773, 53.995312], [11.104297, 54.00918], [11.399609, 53.944629], [11.461133, 53.964746], [11.700586, 54.113525], [11.796289, 54.145459], [12.111328, 54.168311], [12.168652, 54.225879], [12.296289, 54.283789], [12.378516, 54.347021], [12.575391, 54.467383], [12.779102, 54.445703], [12.898047, 54.422656], [13.028613, 54.411035], [13.147461, 54.282715], [13.448047, 54.140869], [13.724219, 54.153223], [13.822266, 54.019043], [13.865527, 53.853369], [13.950391, 53.801367], [14.025, 53.767432], [14.25, 53.731885], [14.258887, 53.729639], [14.266113, 53.707129], [14.279883, 53.624756], [14.29873, 53.556445], [14.414551, 53.283496], [14.412305, 53.216748], [14.410938, 53.199023], [14.368555, 53.105566], [14.293164, 53.026758], [14.193652, 52.982324], [14.138867, 52.932861], [14.128613, 52.878223], [14.253711, 52.78252], [14.514063, 52.645605], [14.619434, 52.528516], [14.569727, 52.431104], [14.55459, 52.359668], [14.573926, 52.31416], [14.615625, 52.277637], [14.679883, 52.25], [14.705371, 52.207471], [14.692383, 52.150049], [14.70459, 52.110205], [14.752539, 52.081836], [14.748145, 52.070801], [14.724805, 52.030859], [14.692969, 51.958008], [14.674902, 51.904834], [14.60166, 51.832373], [14.623926, 51.770801], [14.681348, 51.698193], [14.724902, 51.661719], [14.738672, 51.627148], [14.710938, 51.544922], [14.724707, 51.523877], [14.905957, 51.46333], [14.935547, 51.435352], [14.953125, 51.377148], [15.016602, 51.252734], [14.963867, 51.095117], [14.91748, 51.00874], [14.814258, 50.871631], [14.809375, 50.858984], [14.797461, 50.842334], [14.766504, 50.818311], [14.72334, 50.814697], [14.658203, 50.832617], [14.613574, 50.855566], [14.623828, 50.914746], [14.595215, 50.918604], [14.559668, 50.954932], [14.545703, 50.993945], [14.507324, 51.009863], [14.367285, 51.02627], [14.319727, 51.037793], [14.283203, 51.029492], [14.255859, 51.001855], [14.27334, 50.976904], [14.299414, 50.952588], [14.377051, 50.914062], [14.369043, 50.89873], [14.201758, 50.86123], [14.096484, 50.822754], [13.998438, 50.801123], [13.898535, 50.761279], [13.701367, 50.716504], [13.556738, 50.704639], [13.526563, 50.692822], [13.472559, 50.616943], [13.436133, 50.601074], [13.401172, 50.609326], [13.374609, 50.621729], [13.341016, 50.611426], [13.306055, 50.586328], [13.269531, 50.576416], [13.237695, 50.576758], [13.181152, 50.510498], [13.016406, 50.490381], [12.99707, 50.456055], [12.966797, 50.416211], [12.942676, 50.406445], [12.868262, 50.422217], [12.76543, 50.430957], [12.706445, 50.409131], [12.635547, 50.39707], [12.549023, 50.393408], [12.452637, 50.349805], [12.358594, 50.273242], [12.305664, 50.205713], [12.277344, 50.181445], [12.231152, 50.244873], [12.174805, 50.288379], [12.134863, 50.310937], [12.099219, 50.310986], [12.089844, 50.301758], [12.089746, 50.268555], [12.127832, 50.213428], [12.175, 50.17583], [12.18252, 50.148047], [12.207813, 50.09751], [12.276465, 50.042334], [12.38418, 49.998584], [12.457617, 49.955518], [12.512012, 49.895801], [12.5125, 49.877441], [12.497559, 49.853076], [12.471875, 49.830078], [12.450195, 49.800146], [12.390527, 49.739648], [12.408203, 49.713184], [12.457031, 49.679785], [12.500293, 49.639697], [12.555762, 49.574854], [12.632031, 49.46123], [12.681152, 49.414502], [12.747852, 49.366211], [12.813379, 49.329346], [12.916699, 49.330469], [13.02373, 49.260107], [13.140527, 49.15835], [13.227832, 49.11167], [13.28877, 49.097461], [13.339063, 49.060791], [13.383691, 49.008105], [13.401172, 48.977588], [13.440723, 48.955566], [13.547656, 48.959668], [13.684961, 48.876709], [13.769922, 48.815967], [13.814746, 48.766943], [13.80293, 48.74751], [13.797461, 48.686426], [13.798828, 48.62168], [13.785352, 48.587451], [13.723926, 48.542383], [13.692188, 48.532764], [13.675195, 48.523047], [13.486621, 48.581836], [13.47168, 48.571826], [13.459863, 48.564551], [13.409375, 48.394141], [13.374609, 48.361377], [13.322852, 48.33125], [13.215234, 48.301904], [13.14043, 48.289941], [13.082129, 48.275098], [12.897461, 48.203711], [12.814258, 48.16084], [12.760352, 48.106982], [12.760059, 48.075977], [12.849902, 47.984814], [12.953516, 47.890625], [12.954199, 47.807764], [12.908301, 47.745801], [12.897656, 47.721875], [12.928125, 47.712842], [12.985547, 47.709424], [13.033594, 47.69873], [13.054102, 47.655127], [13.047949, 47.57915], [13.031543, 47.508008], [13.014355, 47.478076], [12.968066, 47.475684], [12.878906, 47.506445], [12.809375, 47.542187], [12.782813, 47.56416], [12.781152, 47.59043], [12.796191, 47.607031], [12.771387, 47.639404], [12.68584, 47.669336], [12.594238, 47.656299], [12.526563, 47.636133], [12.48291, 47.637305], [12.435742, 47.666113], [12.363184, 47.688184], [12.268359, 47.702734], [12.209277, 47.718262], [12.196875, 47.709082], [12.203809, 47.646729], [12.185645, 47.619531], [11.716797, 47.583496], [11.573926, 47.549756], [11.469922, 47.506104], [11.392969, 47.487158], [11.374121, 47.460254], [11.297949, 47.424902], [11.211914, 47.413623], [11.191211, 47.425195], [11.136035, 47.408887], [11.041992, 47.393115], [10.980859, 47.398145], [10.952148, 47.426709], [10.893945, 47.470459], [10.870605, 47.500781], [10.873047, 47.520215], [10.741602, 47.524121], [10.658691, 47.547217], [10.482813, 47.541797], [10.439453, 47.551562], [10.430371, 47.541064], [10.403906, 47.416992], [10.369141, 47.366064], [10.312793, 47.313428], [10.240625, 47.284131], [10.183008, 47.278809], [10.185742, 47.317187], [10.200293, 47.363428], [10.158789, 47.374268], [10.096484, 47.37959], [10.066309, 47.393359], [10.074219, 47.428516], [10.059863, 47.449072], [10.034082, 47.473584], [9.971582, 47.505322], [9.83916, 47.552295], [9.748926, 47.575537], [9.715137, 47.550781], [9.650586, 47.525879], [9.548926, 47.534033], [9.524023, 47.524219]]], [[[13.70918, 54.382715], [13.73418, 54.31543], [13.707324, 54.281152], [13.594922, 54.338184], [13.482031, 54.337402], [13.414551, 54.249561], [13.364355, 54.24585], [13.190039, 54.325635], [13.162109, 54.364551], [13.156348, 54.396924], [13.18125, 54.508984], [13.17666, 54.544238], [13.231445, 54.582764], [13.239941, 54.638428], [13.336816, 54.697119], [13.422754, 54.699316], [13.450098, 54.649609], [13.491211, 54.615381], [13.636035, 54.577002], [13.657617, 54.55957], [13.670703, 54.535449], [13.60332, 54.488184], [13.580469, 54.463965], [13.601855, 54.425146], [13.70918, 54.382715]]], [[[14.211426, 53.950342], [14.198242, 53.919043], [14.213672, 53.870752], [14.172168, 53.874365], [14.04834, 53.863086], [13.925781, 53.879053], [13.902148, 53.938965], [13.92168, 53.996631], [13.872461, 54.036279], [13.827148, 54.05957], [13.82041, 54.092822], [13.827734, 54.127246], [14.038867, 54.03457], [14.211426, 53.950342]]], [[[11.282813, 54.417969], [11.129297, 54.416016], [11.070703, 54.456006], [11.011719, 54.466162], [11.043457, 54.515479], [11.084961, 54.533398], [11.233594, 54.50127], [11.280273, 54.438379], [11.282813, 54.417969]]], [[[8.307715, 54.786963], [8.284668, 54.76709], [8.295703, 54.908301], [8.405176, 55.05874], [8.451465, 55.055371], [8.404102, 55.014746], [8.39043, 54.986279], [8.371191, 54.929395], [8.379883, 54.899854], [8.62959, 54.891748], [8.600586, 54.865381], [8.347363, 54.847607], [8.307715, 54.786963]]], [[[8.587891, 54.712695], [8.548926, 54.688184], [8.453809, 54.691064], [8.400391, 54.714111], [8.417676, 54.738672], [8.468164, 54.757422], [8.509961, 54.760303], [8.573438, 54.74873], [8.587891, 54.712695]]]]}}, {"type": "Feature", "properties": {"country": "FR", "name": "Frankreich"}, "geometry": {"type": "MultiPolygon", "coordinates": [[[[9.480371, 42.80542], [9.454199, 42.658594], [9.473242, 42.615576], [9.509375, 42.585596], [9.526172, 42.552637], [9.556445, 42.160937], [9.550684, 42.129736], [9.428418, 41.972412], [9.400879, 41.926221], [9.394824, 41.731201], [9.374219, 41.678809], [9.330859, 41.627148], [9.253418, 41.460059], [9.186133, 41.384912], [9.003027, 41.476562], [8.89502, 41.516162], [8.84209, 41.558887], [8.80752, 41.588379], [8.829785, 41.627686], [8.879004, 41.668555], [8.886816, 41.700684], [8.770996, 41.737109], [8.717969, 41.761426], [8.718652, 41.804004], [8.758691, 41.87041], [8.74043, 41.925146], [8.673633, 41.922363], [8.621875, 41.930713], [8.615137, 41.959131], [8.653418, 41.995557], [8.702539, 42.043115], [8.700977, 42.095605], [8.641602, 42.118213], [8.587793, 42.16084], [8.566211, 42.218799], [8.60791, 42.258447], [8.675488, 42.284033], [8.625879, 42.343408], [8.592383, 42.344727], [8.565625, 42.357715], [8.5875, 42.385303], [8.640039, 42.426562], [8.713086, 42.549756], [8.814844, 42.60791], [8.994922, 42.645312], [9.043652, 42.66167], [9.088379, 42.70498], [9.137891, 42.73291], [9.198047, 42.729199], [9.253516, 42.712451], [9.287695, 42.694629], [9.313379, 42.713184], [9.338379, 42.766895], [9.323047, 42.814062], [9.330957, 42.943799], [9.363184, 43.017383], [9.415234, 43.021484], [9.463281, 42.981006], [9.46084, 42.945215], [9.478613, 42.860498], [9.480371, 42.80542]]], [[[7.615625, 47.592725], [7.494922, 47.547363], [7.467383, 47.507666], [7.42002, 47.455176], [7.343164, 47.433105], [7.265723, 47.425781], [7.203125, 47.432715], [7.16748, 47.453711], [7.169238, 47.473242], [7.136035, 47.489844], [7.053418, 47.489355], [6.968359, 47.453223], [6.900391, 47.394238], [6.921484, 47.36123], [6.984082, 47.352539], [7.000586, 47.339453], [7.000586, 47.32251], [6.978516, 47.302051], [6.952051, 47.267187], [6.820703, 47.163184], [6.688086, 47.058252], [6.666895, 47.026514], [6.624805, 47.004346], [6.45625, 46.94834], [6.438574, 46.925879], [6.429004, 46.832275], [6.410156, 46.75542], [6.285156, 46.683057], [6.160742, 46.611035], [6.129688, 46.566992], [6.107031, 46.516064], [6.067969, 46.458545], [6.060254, 46.428174], [6.123242, 46.378613], [6.115918, 46.337646], [6.095898, 46.279395], [6.036133, 46.238086], [5.97002, 46.214697], [5.971484, 46.151221], [6.006641, 46.142334], [6.086621, 46.147021], [6.199414, 46.193066], [6.272949, 46.252246], [6.22959, 46.308447], [6.224219, 46.319434], [6.234668, 46.332617], [6.321875, 46.393701], [6.428906, 46.430518], [6.578223, 46.437354], [6.758105, 46.415771], [6.776074, 46.406641], [6.767383, 46.369189], [6.78418, 46.313965], [6.816797, 46.275195], [6.77207, 46.165137], [6.805664, 46.130664], [6.858008, 46.089404], [6.897266, 46.051758], [6.953711, 46.017139], [7.003906, 45.958838], [7.021094, 45.925781], [6.94082, 45.868359], [6.804492, 45.814551], [6.78916, 45.780078], [6.790918, 45.740869], [6.80625, 45.71001], [6.881445, 45.670361], [6.962402, 45.580566], [7.013672, 45.500488], [7.126074, 45.423682], [7.153418, 45.400928], [7.146387, 45.381738], [7.116797, 45.349023], [7.07832, 45.239941], [7.032422, 45.222607], [6.98125, 45.215576], [6.842285, 45.135645], [6.780371, 45.145312], [6.692285, 45.144287], [6.627734, 45.117969], [6.634766, 45.068164], [6.691406, 45.022607], [6.724707, 44.972998], [6.738184, 44.921387], [6.801074, 44.883154], [6.889355, 44.860303], [6.939844, 44.85874], [6.972852, 44.84502], [6.992676, 44.827295], [7.030664, 44.716699], [7.00791, 44.688965], [6.960352, 44.677148], [6.931934, 44.631641], [6.875195, 44.564551], [6.842969, 44.510693], [6.878613, 44.463281], [6.893848, 44.428174], [6.874805, 44.392041], [6.900195, 44.335742], [6.967285, 44.280029], [7.149414, 44.201709], [7.318555, 44.137988], [7.370898, 44.127393], [7.599414, 44.168359], [7.637207, 44.164844], [7.665039, 44.116016], [7.677148, 44.083154], [7.651465, 44.033643], [7.589648, 43.96543], [7.522656, 43.911084], [7.482031, 43.864893], [7.490527, 43.822949], [7.493164, 43.767139], [7.438672, 43.750439], [7.436914, 43.761475], [7.414453, 43.770898], [7.39502, 43.765332], [7.380078, 43.753223], [7.377734, 43.731738], [7.261523, 43.696094], [7.181445, 43.659131], [6.864746, 43.43833], [6.716602, 43.373584], [6.687402, 43.33457], [6.657227, 43.26167], [6.570215, 43.199072], [6.494043, 43.169287], [6.305371, 43.138721], [6.115918, 43.072363], [6.030566, 43.100977], [5.809473, 43.0979], [5.671582, 43.177832], [5.406543, 43.228516], [5.320215, 43.344922], [5.199512, 43.35249], [5.12041, 43.348975], [5.073145, 43.366602], [5.06084, 43.406299], [5.059766, 43.444531], [4.975977, 43.426953], [4.911914, 43.426953], [4.87373, 43.411621], [4.843555, 43.393945], [4.80791, 43.405225], [4.787207, 43.401416], [4.789062, 43.378906], [4.712109, 43.373291], [4.628711, 43.387109], [4.409766, 43.447217], [4.376172, 43.456396], [4.224219, 43.479639], [4.162793, 43.503662], [4.113086, 43.563037], [4.075098, 43.581836], [4.052637, 43.593066], [3.91084, 43.563086], [3.861621, 43.516357], [3.784766, 43.461621], [3.258887, 43.193213], [3.162891, 43.080762], [3.051758, 42.915137], [3.043066, 42.837891], [3.090918, 42.590869], [3.197852, 42.461182], [3.211426, 42.431152], [3.152148, 42.431006], [3.052637, 42.447217], [2.97002, 42.467236], [2.891406, 42.456055], [2.815625, 42.429248], [2.749414, 42.413037], [2.701855, 42.408496], [2.67002, 42.393018], [2.654785, 42.362109], [2.65166, 42.340479], [2.567969, 42.345801], [2.374414, 42.390283], [2.200391, 42.420947], [2.09834, 42.386084], [2.032715, 42.353516], [1.986523, 42.358496], [1.951465, 42.392773], [1.92793, 42.426318], [1.859766, 42.45708], [1.706055, 42.50332], [1.713965, 42.525635], [1.740234, 42.556738], [1.739453, 42.575928], [1.709863, 42.604443], [1.568164, 42.63501], [1.501367, 42.642725], [1.458887, 42.62168], [1.42832, 42.595898], [1.349414, 42.690674], [1.293262, 42.709961], [1.208301, 42.713135], [1.111133, 42.742041], [1.010059, 42.778955], [0.764453, 42.838037], [0.696875, 42.845117], [0.669824, 42.835742], [0.651758, 42.800439], [0.641992, 42.700635], [0.631641, 42.6896], [0.517676, 42.686279], [0.377246, 42.700146], [0.312891, 42.693262], [0.255469, 42.69292], [0.201367, 42.719336], [-0.041162, 42.689111], [-0.081494, 42.703857], [-0.140039, 42.748926], [-0.205322, 42.785303], [-0.256055, 42.803955], [-0.299316, 42.825342], [-0.338574, 42.828809], [-0.398438, 42.808105], [-0.481152, 42.799316], [-0.549805, 42.802002], [-0.586426, 42.798975], [-0.740186, 42.909521], [-0.762646, 42.939795], [-0.839209, 42.948193], [-0.933838, 42.949512], [-1.175439, 43.021143], [-1.285449, 43.059619], [-1.301562, 43.082471], [-1.300049, 43.100977], [-1.318848, 43.096973], [-1.352734, 43.064258], [-1.370508, 43.037598], [-1.394043, 43.032617], [-1.42876, 43.036768], [-1.46084, 43.051758], [-1.480469, 43.071143], [-1.459424, 43.10498], [-1.422607, 43.149121], [-1.407324, 43.197119], [-1.410693, 43.240088], [-1.471729, 43.267676], [-1.561475, 43.279199], [-1.627148, 43.282471], [-1.712842, 43.307031], [-1.753271, 43.324707], [-1.792725, 43.372559], [-1.794043, 43.407324], [-1.631445, 43.438037], [-1.484863, 43.56377], [-1.345996, 44.020215], [-1.245508, 44.559863], [-1.170801, 44.661816], [-1.076953, 44.689844], [-1.152881, 44.764014], [-1.200391, 44.726465], [-1.220312, 44.686621], [-1.245215, 44.666699], [-1.189062, 45.161475], [-1.149072, 45.342627], [-1.081006, 45.532422], [-0.941748, 45.45708], [-0.826318, 45.380664], [-0.76665, 45.314355], [-0.691113, 45.093457], [-0.633984, 45.047119], [-0.548486, 45.000586], [-0.582275, 45.051367], [-0.641113, 45.090186], [-0.733105, 45.384619], [-0.790771, 45.468018], [-0.880664, 45.538184], [-1.169971, 45.685937], [-1.195996, 45.714453], [-1.209961, 45.770898], [-1.114355, 45.768506], [-1.031738, 45.741064], [-1.041504, 45.772656], [-1.066016, 45.805664], [-1.104395, 45.925342], [-1.136377, 46.204834], [-1.132031, 46.252686], [-1.146289, 46.311377], [-1.238818, 46.324512], [-1.312793, 46.326904], [-1.39248, 46.350098], [-1.786523, 46.514844], [-1.921436, 46.684814], [-2.059375, 46.810303], [-2.09248, 46.865039], [-2.090283, 46.920508], [-2.018896, 47.037646], [-2.081934, 47.111621], [-2.143555, 47.126318], [-2.19707, 47.162939], [-2.148584, 47.223926], [-2.108301, 47.262939], [-2.027588, 47.273584], [-1.921729, 47.260645], [-1.821289, 47.225342], [-1.742529, 47.215967], [-1.975391, 47.310693], [-2.353027, 47.27876], [-2.434424, 47.290967], [-2.503125, 47.312061], [-2.530029, 47.381592], [-2.476318, 47.412939], [-2.427686, 47.470898], [-2.482715, 47.511621], [-2.554053, 47.527051], [-2.665918, 47.526172], [-2.770312, 47.513867], [-2.796777, 47.537256], [-2.733105, 47.601807], [-2.787207, 47.625537], [-2.859375, 47.614453], [-2.964062, 47.601074], [-3.064209, 47.621338], [-3.158838, 47.694678], [-3.221582, 47.694141], [-3.264697, 47.685107], [-3.328613, 47.71333], [-3.395898, 47.72041], [-3.443945, 47.711035], [-3.507812, 47.753125], [-3.900928, 47.837549], [-4.070703, 47.847852], [-4.226416, 47.809619], [-4.312109, 47.8229], [-4.375098, 47.877441], [-4.427979, 47.968945], [-4.678809, 48.039502], [-4.629199, 48.085791], [-4.512402, 48.096729], [-4.377832, 48.128809], [-4.329443, 48.169971], [-4.434619, 48.217969], [-4.512207, 48.229736], [-4.544336, 48.246973], [-4.577148, 48.290039], [-4.530664, 48.309717], [-4.4979, 48.299268], [-4.40332, 48.293066], [-4.241406, 48.303662], [-4.301758, 48.34707], [-4.364404, 48.356738], [-4.393164, 48.367627], [-4.524805, 48.372314], [-4.584717, 48.35752], [-4.719385, 48.363135], [-4.748535, 48.41001], [-4.7625, 48.450244], [-4.720752, 48.539893], [-4.531201, 48.619971], [-4.058887, 48.70752], [-3.855664, 48.694727], [-3.714795, 48.710498], [-3.545996, 48.765674], [-3.471484, 48.812939], [-3.231445, 48.84082], [-3.003223, 48.790674], [-2.792871, 48.601074], [-2.692334, 48.536816], [-2.446191, 48.648291], [-2.079443, 48.64502], [-2.003711, 48.58208], [-1.973145, 48.635107], [-1.905713, 48.697119], [-1.851953, 48.668848], [-1.824707, 48.630518], [-1.437646, 48.641406], [-1.376465, 48.652588], [-1.480469, 48.697607], [-1.565479, 48.805518], [-1.583105, 49.202393], [-1.690332, 49.313184], [-1.813428, 49.490137], [-1.870068, 49.595117], [-1.875391, 49.631396], [-1.856445, 49.683789], [-1.705127, 49.680957], [-1.588232, 49.667676], [-1.365723, 49.707275], [-1.258643, 49.680176], [-1.264941, 49.598242], [-1.232275, 49.494873], [-1.194971, 49.444824], [-1.138525, 49.387891], [-0.959131, 49.393164], [-0.765527, 49.359717], [-0.520898, 49.354541], [-0.163477, 49.296777], [-0.011182, 49.330225], [0.136133, 49.401514], [0.416895, 49.448389], [0.439258, 49.473193], [0.277637, 49.463281], [0.129395, 49.508447], [0.109375, 49.55752], [0.126563, 49.601562], [0.186719, 49.703027], [0.616211, 49.862939], [0.924121, 49.910205], [1.245508, 49.998242], [1.407227, 50.088525], [1.514063, 50.205078], [1.548438, 50.230713], [1.592773, 50.252197], [1.551563, 50.293945], [1.579492, 50.739258], [1.60957, 50.819482], [1.672266, 50.88501], [1.767676, 50.935693], [1.9125, 50.990625], [2.445703, 51.066504], [2.524902, 51.097119], [2.536035, 51.049512], [2.574805, 50.988574], [2.601465, 50.955273], [2.579297, 50.911768], [2.596777, 50.875928], [2.669141, 50.811426], [2.759375, 50.750635], [2.839746, 50.711768], [2.862402, 50.716016], [2.921973, 50.727051], [3.022852, 50.766895], [3.106836, 50.779443], [3.154883, 50.748926], [3.182031, 50.731689], [3.234961, 50.662939], [3.249805, 50.591162], [3.27334, 50.531543], [3.316211, 50.507373], [3.476953, 50.499463], [3.59541, 50.477344], [3.626758, 50.457324], [3.667285, 50.324805], [3.689355, 50.306055], [3.718848, 50.32168], [3.748047, 50.343506], [3.788574, 50.346973], [3.858105, 50.338574], [3.949707, 50.335938], [4.044141, 50.321338], [4.174609, 50.246484], [4.169629, 50.221777], [4.144141, 50.178418], [4.135254, 50.143799], [4.157715, 50.129883], [4.192188, 50.094141], [4.183887, 50.052832], [4.150293, 50.023877], [4.136816, 50], [4.137012, 49.984473], [4.149316, 49.971582], [4.176074, 49.960254], [4.36875, 49.944971], [4.54502, 49.960254], [4.656152, 50.002441], [4.675098, 50.046875], [4.706641, 50.09707], [4.772852, 50.139062], [4.818652, 50.153174], [4.860547, 50.135889], [4.790039, 49.95957], [4.841504, 49.914502], [4.849121, 49.847119], [4.867578, 49.788135], [4.930566, 49.789258], [5.006934, 49.778369], [5.061035, 49.756543], [5.124121, 49.721484], [5.215039, 49.689258], [5.278809, 49.67793], [5.301953, 49.650977], [5.353516, 49.619824], [5.434668, 49.554492], [5.507324, 49.510889], [5.542383, 49.511035], [5.610059, 49.528223], [5.710449, 49.539209], [5.789746, 49.538281], [5.823438, 49.505078], [5.901367, 49.489746], [5.928906, 49.477539], [5.959473, 49.454639], [6.011426, 49.445459], [6.074121, 49.454639], [6.119922, 49.485205], [6.181055, 49.498926], [6.242188, 49.494336], [6.277344, 49.477539], [6.344336, 49.452734], [6.382227, 49.458154], [6.458105, 49.442871], [6.534277, 49.394678], [6.566309, 49.346191], [6.574707, 49.319678], [6.607617, 49.290869], [6.735449, 49.160596], [6.77627, 49.15415], [6.820703, 49.173926], [6.849512, 49.201953], [6.891211, 49.20752], [6.958301, 49.194629], [7.001465, 49.179883], [7.022168, 49.123437], [7.036719, 49.112695], [7.065723, 49.124854], [7.117383, 49.127539], [7.199902, 49.113623], [7.313379, 49.129541], [7.404199, 49.153076], [7.450586, 49.152197], [7.525488, 49.086377], [7.610938, 49.061768], [7.799219, 49.041895], [8.00127, 49.010937], [8.080664, 48.985889], [8.134863, 48.973584], [8.140332, 48.886426], [8.124023, 48.873291], [7.922754, 48.698535], [7.837988, 48.636035], [7.794824, 48.546826], [7.765137, 48.41001], [7.705664, 48.280029], [7.616602, 48.156787], [7.58418, 48.064307], [7.608496, 48.002588], [7.593262, 47.905664], [7.538574, 47.773633], [7.529395, 47.673877], [7.56543, 47.606543], [7.615625, 47.592725]]], [[[-1.17832, 45.904053], [-1.213574, 45.816602], [-1.280273, 45.897119], [-1.368701, 45.967676], [-1.388867, 46.032959], [-1.388672, 46.050391], [-1.285059, 46.002686], [-1.17832, 45.904053]]], [[[45.180273, -12.976758], [45.117578, -12.984961], [45.087695, -12.958496], [45.069434, -12.895605], [45.088281, -12.835059], [45.093555, -12.786133], [45.042578, -12.70127], [45.092383, -12.653027], [45.134766, -12.70918], [45.158789, -12.712988], [45.223145, -12.752148], [45.204297, -12.824316], [45.208594, -12.847949], [45.179395, -12.920215], [45.180273, -12.976758]]], [[[55.797363, -21.339355], [55.656152, -21.369043], [55.557617, -21.358301], [55.362695, -21.273633], [55.310352, -21.217383], [55.232813, -21.058398], [55.25, -21.002441], [55.311328, -20.904102], [55.450488, -20.865137], [55.596484, -20.87959], [55.661914, -20.90625], [55.73916, -21.021484], [55.839063, -21.138574], [55.822461, -21.277832], [55.797363, -21.339355]]], [[[-60.82627, 14.494482], [-60.836621, 14.437402], [-60.862109, 14.42627], [-60.899414, 14.473779], [-61.063721, 14.46709], [-61.088867, 14.50957], [-61.090332, 14.529687], [-61.011328, 14.601904], [-61.104297, 14.62124], [-61.141113, 14.652393], [-61.219727, 14.804395], [-61.21333, 14.848584], [-61.180811, 14.871924], [-61.127393, 14.875293], [-61.0271, 14.826172], [-60.952539, 14.75625], [-60.927148, 14.755176], [-60.918652, 14.735352], [-60.933691, 14.686182], [-60.88916, 14.644531], [-60.869971, 14.613721], [-60.82627, 14.494482]]], [[[-61.327148, 16.23042], [-61.444824, 16.219287], [-61.522168, 16.228027], [-61.53999, 16.299609], [-61.500586, 16.360205], [-61.528906, 16.433789], [-61.510645, 16.477686], [-61.471191, 16.506641], [-61.406445, 16.468311], [-61.396143, 16.413428], [-61.355469, 16.363184], [-61.172607, 16.256104], [-61.327148, 16.23042]]], [[[-61.589551, 16.006934], [-61.670459, 15.962061], [-61.710254, 15.975928], [-61.759424, 16.062061], [-61.794092, 16.300977], [-61.767139, 16.340479], [-61.748047, 16.355273], [-61.641504, 16.325977], [-61.597021, 16.292187], [-61.552344, 16.270898], [-61.575049, 16.227148], [-61.563867, 16.047754], [-61.589551, 16.006934]]], [[[-61.230469, 15.889941], [-61.28623, 15.886035], [-61.310742, 15.894678], [-61.318408, 15.954883], [-61.275293, 15.99624], [-61.25, 16.006299], [-61.212354, 15.959912], [-61.203418, 15.92124], [-61.230469, 15.889941]]], [[[-54.61626, 2.326758], [-54.604736, 2.335791], [-54.568408, 2.342578], [-54.535937, 2.343311], [-54.485547, 2.416113], [-54.402002, 2.461523], [-54.256738, 2.713721], [-54.195508, 2.817871], [-54.188086, 2.874854], [-54.170703, 2.993604], [-54.203125, 3.138184], [-54.188037, 3.17876], [-54.063184, 3.35332], [-54.00957, 3.448535], [-54.005957, 3.530518], [-53.990479, 3.589551], [-54.005908, 3.62041], [-54.034229, 3.629395], [-54.081982, 3.705957], [-54.112793, 3.769434], [-54.197461, 3.834424], [-54.255518, 3.901074], [-54.350732, 4.054102], [-54.342139, 4.140039], [-54.369141, 4.170947], [-54.398389, 4.20249], [-54.39624, 4.241406], [-54.416016, 4.337646], [-54.440674, 4.428027], [-54.449609, 4.48501], [-54.426074, 4.583008], [-54.440234, 4.691992], [-54.471143, 4.749316], [-54.479687, 4.836523], [-54.47334, 4.914697], [-54.446875, 4.958789], [-54.452197, 5.013477], [-54.331641, 5.187402], [-54.240186, 5.288232], [-54.155957, 5.358984], [-54.085303, 5.411816], [-53.9896, 5.676025], [-53.919922, 5.768994], [-53.847168, 5.782227], [-53.454443, 5.563477], [-53.270361, 5.543262], [-52.899316, 5.425049], [-52.76499, 5.273486], [-52.453955, 5.021338], [-52.290527, 4.942187], [-52.288916, 4.876123], [-52.324609, 4.770898], [-52.219971, 4.862793], [-52.058105, 4.717383], [-52.012305, 4.645996], [-51.961914, 4.514404], [-51.979346, 4.429883], [-52.001709, 4.38623], [-52.00293, 4.352295], [-51.954785, 4.399072], [-51.927686, 4.436133], [-51.91958, 4.524316], [-51.880273, 4.63374], [-51.827539, 4.635693], [-51.785645, 4.570508], [-51.698633, 4.286816], [-51.66582, 4.228809], [-51.653271, 4.13877], [-51.658105, 4.098486], [-51.652539, 4.061279], [-51.683447, 4.039697], [-51.76709, 3.992676], [-51.805273, 3.929932], [-51.82749, 3.86958], [-51.879492, 3.828564], [-51.928906, 3.776953], [-51.944336, 3.735107], [-51.990625, 3.702002], [-51.999512, 3.646875], [-52.116113, 3.452295], [-52.162598, 3.364697], [-52.229443, 3.27168], [-52.27124, 3.237109], [-52.327881, 3.181738], [-52.356641, 3.117725], [-52.356641, 3.051562], [-52.396387, 2.972217], [-52.418408, 2.903857], [-52.455859, 2.86416], [-52.554688, 2.647656], [-52.559473, 2.573145], [-52.583008, 2.528906], [-52.653174, 2.425732], [-52.700635, 2.363672], [-52.783398, 2.317187], [-52.87041, 2.26665], [-52.903467, 2.211523], [-52.964844, 2.183545], [-53.009717, 2.181738], [-53.082275, 2.201709], [-53.180078, 2.211328], [-53.229785, 2.204883], [-53.252197, 2.232275], [-53.285498, 2.295215], [-53.334424, 2.339746], [-53.366016, 2.324219], [-53.431836, 2.279443], [-53.508984, 2.253125], [-53.563965, 2.261914], [-53.683691, 2.29292], [-53.734717, 2.308545], [-53.750146, 2.33501], [-53.767773, 2.354834], [-53.794238, 2.345996], [-53.829541, 2.312939], [-53.876611, 2.278271], [-53.946436, 2.232568], [-54.089746, 2.150488], [-54.130078, 2.121045], [-54.167383, 2.137061], [-54.227979, 2.15332], [-54.293066, 2.154248], [-54.433105, 2.20752], [-54.515088, 2.245459], [-54.550488, 2.293066], [-54.591943, 2.31377], [-54.61626, 2.326758]]]]}}, {"type": "Feature", "properties": {"country": "BE", "name": "Belgien"}, "geometry": {"type": "Polygon", "coordinates": [[[4.226172, 51.386475], [4.304492, 51.361523], [4.37373, 51.356006], [4.404004, 51.36709], [4.384766, 51.427588], [4.440918, 51.459814], [4.503418, 51.474707], [4.531641, 51.448584], [4.58877, 51.421924], [4.633984, 51.421729], [4.755664, 51.491113], [4.78418, 51.477393], [4.810547, 51.452734], [4.816016, 51.432812], [4.820703, 51.412061], [4.848047, 51.403271], [4.943945, 51.407764], [4.992578, 51.445361], [5.030957, 51.469092], [5.059473, 51.453125], [5.073438, 51.406836], [5.099902, 51.346484], [5.21416, 51.278955], [5.31084, 51.259717], [5.429785, 51.272998], [5.476855, 51.285059], [5.508789, 51.275], [5.54043, 51.239307], [5.608789, 51.198437], [5.752344, 51.169482], [5.796484, 51.153076], [5.827148, 51.125635], [5.818262, 51.086426], [5.749805, 50.98877], [5.74082, 50.959912], [5.75, 50.950244], [5.736621, 50.932129], [5.647559, 50.86665], [5.639453, 50.843604], [5.669141, 50.805957], [5.693555, 50.774756], [5.693652, 50.774658], [5.74707, 50.75957], [5.797363, 50.754541], [5.892461, 50.752557], [5.993945, 50.750439], [6.005957, 50.732227], [6.119434, 50.679248], [6.154492, 50.637256], [6.235938, 50.59668], [6.168457, 50.545361], [6.178711, 50.52251], [6.203027, 50.499121], [6.294922, 50.485498], [6.340918, 50.451758], [6.343652, 50.400244], [6.364453, 50.316162], [6.175098, 50.232666], [6.121289, 50.139355], [6.116504, 50.120996], [6.110059, 50.123779], [6.089063, 50.15459], [6.054785, 50.154297], [5.97627, 50.167187], [5.866895, 50.082812], [5.817383, 50.012695], [5.788086, 49.96123], [5.744043, 49.919629], [5.735254, 49.875635], [5.74082, 49.857178], [5.725781, 49.83335], [5.725, 49.808301], [5.787988, 49.758887], [5.803711, 49.732178], [5.880371, 49.644775], [5.856543, 49.612842], [5.837598, 49.57832], [5.81543, 49.553809], [5.789746, 49.538281], [5.710449, 49.539209], [5.610059, 49.528223], [5.542383, 49.511035], [5.507324, 49.510889], [5.434668, 49.554492], [5.353516, 49.619824], [5.301953, 49.650977], [5.278809, 49.67793], [5.215039, 49.689258], [5.124121, 49.721484], [5.061035, 49.756543], [5.006934, 49.778369], [4.930566, 49.789258], [4.867578, 49.788135], [4.849121, 49.847119], [4.841504, 49.914502], [4.790039, 49.95957], [4.860547, 50.135889], [4.818652, 50.153174], [4.772852, 50.139062], [4.706641, 50.09707], [4.675098, 50.046875], [4.656152, 50.002441], [4.54502, 49.960254], [4.36875, 49.944971], [4.176074, 49.960254], [4.149316, 49.971582], [4.137012, 49.984473], [4.136816, 50], [4.150293, 50.023877], [4.183887, 50.052832], [4.192188, 50.094141], [4.157715, 50.129883], [4.135254, 50.143799], [4.144141, 50.178418], [4.169629, 50.221777], [4.174609, 50.246484], [4.044141, 50.321338], [3.949707, 50.335938], [3.858105, 50.338574], [3.788574, 50.346973], [3.748047, 50.343506], [3.718848, 50.32168], [3.689355, 50.306055], [3.667285, 50.324805], [3.626758, 50.457324], [3.59541, 50.477344], [3.476953, 50.499463], [3.316211, 50.507373], [3.27334, 50.531543], [3.249805, 50.591162], [3.234961, 50.662939], [3.182031, 50.731689], [3.154883, 50.748926], [3.106836, 50.779443], [3.022852, 50.766895], [2.921973, 50.727051], [2.862402, 50.716016], [2.839746, 50.711768], [2.759375, 50.750635], [2.669141, 50.811426], [2.596777, 50.875928], [2.579297, 50.911768], [2.601465, 50.955273], [2.574805, 50.988574], [2.536035, 51.049512], [2.524902, 51.097119], [2.960156, 51.26543], [3.225195, 51.351611], [3.350098, 51.377686], [3.380078, 51.291113], [3.402832, 51.263623], [3.43252, 51.245752], [3.471973, 51.242236], [3.51709, 51.263623], [3.580273, 51.286182], [3.681836, 51.275684], [3.755664, 51.254834], [3.781934, 51.233203], [3.830762, 51.212598], [3.902051, 51.207666], [4.040039, 51.24707], [4.172559, 51.30708], [4.211426, 51.34873], [4.226172, 51.386475]]]}}]}